EUTELSAT 8 WEST B       
1 40875U 15039B   25261.94003090 -.00000085  00000+0  00000+0 0  9995
2 40875   0.0711  14.9272 0003744 164.7279 148.8730  1.00272482 36932
EUTELSAT 9B             
1 41310U 16005A   25261.93447597  .00000042  00000+0  00000+0 0  9999
2 41310   0.0422  62.1385 0002372 158.3452 123.0214  1.00270139 35392
EUTELSAT 65 WEST A      
1 41382U 16014A   25261.35494672 -.00000297  00000+0  00000+0 0  9993
2 41382   0.0819  47.0426 0002153 136.5529 236.5255  1.00271697 34809
EUTELSAT 117 WEST B     
1 41589U 16038B   25261.92816512 -.00000032  00000+0  00000+0 0  9999
2 41589   0.0408   9.5314 0000076  29.1773 176.5265  1.00272960 33943
EUTELSAT 172B           
1 42741U 17029B   25261.90158591 -.00000025  00000+0  00000+0 0  9997
2 42741   0.0162 174.7692 0000076 109.5551 210.3102  1.00272287 31017
EUTELSAT 7C             
1 44334U 19034B   25261.93447597  .00000029  00000+0  00000+0 0  9998
2 44334   0.0743 186.0063 0003136 339.5914 175.8965  1.00271659  4113
EUTELSAT 5 WEST B       
1 44624U 19067A   25261.94003090 -.00000062  00000+0  00000+0 0  9991
2 44624   0.0763 330.1734 0003117 214.3973 146.9336  1.00271906 21719
EUTELSAT KONNECT        
1 45027U 20005B   25261.93447597  .00000030  00000+0  00000+0 0  9990
2 45027   0.0648  98.4816 0001572  72.0578 171.1513  1.00269394 21600
